#cP2022 12  8  0  0  0.00000000      96 ORBIT IGS20 HLM  IGS
## 2239 345600.00000000   900.00000000 59921 0.0000000000000
+   31   G01G02G03G04G05G06G07G08G09G10G11G12G13G14G15G16G17
+        G18G19G20G21G22G23G24G25G26G27G29G30G31G32  0  0  0
+          0  0  0  0  0  0  0  0  0  0  0  0  0  0  0  0  0
+          0  0  0  0  0  0  0  0  0  0  0  0  0  0  0  0  0
+          0  0  0  0  0  0  0  0  0  0  0  0  0  0  0  0  0
++         2  2  2  2  2  2  2  2  2  2  2  2  2  3  2  2  2
++         2  2  2  2  2  2  2  2  2  2  2  2  2  2  0  0  0
++         0  0  0  0  0  0  0  0  0  0  0  0  0  0  0  0  0
++         0  0  0  0  0  0  0  0  0  0  0  0  0  0  0  0  0
++         0  0  0  0  0  0  0  0  0  0  0  0  0  0  0  0  0
%c G  cc GPS ccc cccc cccc cccc cccc ccccc ccccc ccccc ccccc
%c cc cc ccc ccc cccc cccc cccc cccc ccccc ccccc ccccc ccccc
%f  1.2500000  1.025000000  0.00000000000  0.000000000000000
%f  0.0000000  0.000000000  0.00000000000  0.000000000000000
%i    0    0    0    0      0      0      0      0         0
%i    0    0    0    0      0      0      0      0         0
/* RAPID ORBIT COMBINATION FROM WEIGHTED AVERAGE OF:        
/* cod emr esa gfz grg jpl ngs sio usn whu                  
/* REFERENCED TO IGS TIME (IGST) AND TO WEIGHTED MEAN POLE: 
/* PCV:IGS20_2233 OL/AL:FES2004  NONE     Y  ORB:CMB CLK:CMB
*  2022 12  8  1 30  0.00000000
PG01  13382.160708 -17823.409352  13865.516159    240.814280  7  6  8 104       
PG02 -10637.209877  21283.883936 -11378.285115   -634.164587  7  6  7 117       
PG03  22179.691827 -12541.030279  -7425.969797   -375.172803  8  5  5  76       
PG04  12335.676512  -9129.510143 -21682.966853    -72.675858  8  7  8 105       
PG05 -25421.108435   4812.874481  -6442.089622   -107.222611  9  7  7  89       
PG06  -7318.951350 -18965.568820 -16979.294939    535.513587  8  6  7 123       
PG07   5735.922998 -25643.469413   -351.457272    277.496522  7  4  3 111       
PG08  19990.612161    873.560579  17604.948120    -97.568474  7  4  6 111       
PG09   1057.312248 -17644.841271 -19890.958355   -256.976384  7  6  7 106       
PG10   6329.229565  13617.872940  22081.646570    -15.142938  5  6  2 123       
PG11 -13668.140465  -7039.518621 -21652.126417    -52.844355  8  6 10 130       
PG12 -23340.068808  10719.591023  -6820.787075   -313.303124 10  5  7  90       
PG13 -20582.627387  -9769.389818  13630.763259    438.100415  6  8  7 110       
PG14  -3388.110908 -15074.185787  21607.554705    -71.745381  7  4  5 119       
PG15 -20051.954154   1717.105425  17020.524298     -5.974964  8  5  7 104       
PG16  24878.101410   1389.431316 -10129.045987   -526.419936  7  9  8 100       
PG17 -10146.283066 -21688.280868  11846.145945    684.145160  6  7  6 113       
PG18  -4844.017877  25985.587984   1618.921100    -50.614975  4  9  6 103       
PG19 -17790.785203 -19912.905199    187.544559    247.557277  6  6  7 109       
PG20 -20151.513493  -3203.500348 -16862.040612    465.036445 10  3  8 116       
PG21  15276.190015  -9055.214232  20107.291595    154.362461  9  5  8 102       
PG22  19035.181870  18557.874272  -1535.135947    380.171815  6  6  5 105       
PG23  -6223.885719  16571.482516  19752.118009     -0.258320  6  1  6  94       
PG24 -14196.682606  14402.052100  16658.828003     25.777369  3  6  6 113       
PG25 -15169.655923  16148.156774 -14736.261267    399.952344 10  6  3 109       
PG26  17694.977465   7627.420328 -18514.653040    237.868826  7  8  6  91       
PG27  22297.610870  11418.984555   9192.661744    159.029516  7  5  6 109       
PG29  -4229.799944  15887.050144 -20883.540568   -572.496837  7  5  7 131       
PG30  -2628.624846 -24119.171013  10592.421345   -535.752062  8  2  4 110       
PG31   8908.035847  17466.208038 -17859.901921   -202.586145  8  7  4  87       
PG32  14015.679785  20842.284326   9095.969247   -322.002090  4  6  6  96       
*  2022 12  8  1 45  0.00000000
PG01  13202.220255 -16058.415121  16013.130223    240.809529  7  6  8  94       
PG02 -10690.943618  19752.361670 -13703.094850   -634.163110  7  6  7 117       
PG03  22886.746928 -12577.895194  -4643.281287   -375.173124  7  6  5  80       
PG04  14137.055869  -7462.648942 -21225.576085    -72.669497  8  6  8 101       
PG05 -24705.409942   4278.523363  -9110.167974   -107.223601  9  8  8  89       
PG06  -6861.439538 -20749.481675 -14966.395341    535.520704  8  5  7 109       
PG07   6011.438957 -25337.407400  -3205.514729    277.491966  7  4  3 114       
PG08  21390.580090   2173.821287  15789.676063    -97.571380  8  3  7 109       
PG09   2923.966706 -16266.583224 -20863.281733   -256.970979  7  6  7 101       
PG10   3990.979381  14463.192775  22062.938258    -15.144802  5  5  3 124       
PG11 -13074.583069  -9414.069975 -21113.249202    -52.850721  7  7  9 124       
PG12 -23972.846535  10658.475722  -4035.378378   -313.307379 10  6  7  84       
PG13 -21416.456203 -10961.631942  11283.028477    438.106509  6  7  7 102       
PG14  -1040.406335 -15804.651220  21313.677238    -71.739895  7  5  6 121       
PG15 -21560.990877    511.829563  15232.045839     -5.972300  8  5  8 112       
PG16  23719.268580   1869.734286 -12563.645631   -526.419687  7  9  8  97       
PG17  -8999.085031 -20826.466248  14184.161955    684.147902  6  7  6 117       
PG18  -5075.266952  25960.497387  -1269.338403    -50.628170  6 10  6  98       
PG19 -17505.972058 -19897.545644   3048.490540    247.561922  6  6  8  96       
PG20 -18465.010533  -4360.601438 -18475.428445    465.034295 10  3  7 109       
PG21  15184.447575  -6795.778888  21140.866847    154.361684  9  4  7  95       
PG22  18907.663030  18769.769826   1312.064340    380.178724  6  6  5 109       
PG23  -8294.173887  17268.601367  18331.496702     -0.257816  7     7 103       
PG24 -14225.297907  12310.625877  18243.975246     25.761990  3  6  6 112       
PG25 -16675.573015  16477.695757 -12507.816804    399.955594 10  7  3 111       
PG26  15758.401895   8614.224746 -19764.786449    237.869705  7  8  6  88       
PG27  22880.153704  12151.348170   6533.401961    159.020331  6  5  6 105       
PG29  -6001.410123  14236.518499 -21634.947266   -572.499054  6  6  7 116       
PG30  -2125.438303 -25110.217716   8057.525342   -535.751513  8  1  4 112       
PG31   8342.867684  19323.736039 -16076.017784   -202.587189  7  6  4  85       
PG32  12986.022844  20270.895608  11594.582622   -322.013863  5  6  6  92       
*  2022 12  8  2  0  0.00000000
PG01  13090.800594 -14056.481410  17875.026712    240.804747  8  6  7 101       
PG02 -10819.094222  17967.697961 -15785.265555   -634.161353  8  7  7 123       
PG03  23297.355509 -12524.719641  -1780.365924   -375.173416  7  6  5  77       
PG04  15965.785935  -5938.076167 -20403.445204    -72.663140  8  6  8 108       
PG05 -23756.827502   3580.423480 -11623.508773   -107.224859  8  7  8  99       
PG06  -6534.308849 -22313.782420 -12693.826911    535.527805  8  3  6 111       
PG07   6265.880472 -24722.272645  -6002.303676    277.487471  7  4  2 112       
PG08  22676.280949   3269.966214  13706.172236    -97.573010  8  2  7 111       
PG09   4931.286121 -14934.436583 -21478.871881   -256.965471  6  6  7 100       
PG10   1721.053146  15427.791357  21669.733567    -15.146253  4  4  3 119       
PG11 -12620.630008 -11735.747379 -20210.999458    -52.857117  6  8  9 121       
PG12 -24307.808256  10522.825610  -1180.417273   -313.311590 10  6  8  79       
PG13 -22114.722413 -11911.742975   8741.369970    438.112542  6  7  7 109       
PG14   1218.274854 -16633.402308  20652.828746    -71.734401  8  5  6 125       
PG15 -22931.115475   -511.030549  13176.726703     -5.969158  8  6  8 102       
PG16  22341.882102   2493.779092 -14790.239490   -526.419204  8  9  8 116       
PG17  -7619.337362 -19869.296898  16283.423784    684.150615  6  7  6 119       
PG18  -5263.927589  25623.367956  -4135.559617    -50.641219  7 10  7 115       
PG19 -16983.598058 -19682.412781   5857.625777    247.566086  6  5  8  97       
PG20 -16700.254953  -5687.506456 -19768.094151    465.031972  9  4  7 118       
PG21  15209.027395  -4448.405184  21824.320097    154.361113  9  4  7  95       
PG22  18554.043714  18774.724735   4137.011030    380.185824  6  6  4 113       
PG23 -10162.628521  17999.832789  16593.815749     -0.257324  8  2  7 105       
PG24 -14345.278461  10061.121290  19502.317927     25.746621  3  7  7 117       
PG25 -17924.982275  16775.649356 -10064.411194    399.958843 10  6  3 115       
PG26  13762.074023   9750.551326 -20680.312535    237.870501  8  8  6  98       
PG27  23255.813192  12667.308313   3763.640686    159.011082  6  5  7 104       
PG29  -7908.862591  12644.456450 -22015.134261   -572.501541  7  6  7 121       
PG30  -1706.925989 -25832.078705   5382.337933   -535.750976  7     5 101       
PG31   7900.546220  20994.793545 -14013.145465   -202.588248  6  6  4  89       
PG32  11710.488330  19595.154134  13897.213033   -322.025731  5  6  6  98       
EOF
